NORAD_CAT_ID,OBJECT_NAME,OBJECT_TYPE,EPOCH,MEAN_MOTION,ECCENTRICITY,INCLINATION,RA_OF_ASC_NODE,ARG_OF_PERICENTER,MEAN_ANOMALY,BSTAR,MEAN_MOTION_DOT,MEAN_MOTION_DDOT,TLE_LINE0,TLE_LINE1,TLE_LINE2,SEMIMAJOR_AXIS,PERIOD,APOGEE,PERIGEE,DECAYED
53181.0,STARLINK-4273,PAYLOAD,2024-01-07 04:44:45,15.08840021,0.0001504,53.2174,81.5517,86.6308,273.4857,4.3635e-05,4.07e-06,0.0,0 STARLINK-4273,1 53181U 22083BB  24007.19774903  .00000407  00000-0  43635-4 0  9992,2 53181  53.2174  81.5517 0001504  86.6308 273.4857 15.08840021 82915,6917.88,95.438,540.786,538.705,0.0
53181.0,STARLINK-4273,PAYLOAD,2024-01-07 11:06:17,15.08843099,0.0001507,53.2174,80.3623,82.9327,277.1836,6.7298e-05,7.83e-06,0.0,0 STARLINK-4273,1 53181U 22083BB  24007.46270638  .00000783  00000-0  67298-4 0  9996,2 53181  53.2174  80.3623 0001507  82.9327 277.1836 15.08843099 82313,6917.871,95.437,540.778,538.693,0.0
53181.0,STARLINK-4273,PAYLOAD,2024-01-08 10:57:04,15.08849425,0.0001529,53.2176,75.9014,83.9366,276.18,3.7897e-05,3.15e-06,0.0,0 STARLINK-4273,1 53181U 22083BB  24008.45630125  .00000315  00000-0  37897-4 0  9990,2 53181  53.2176  75.9014 0001529  83.9366 276.1800 15.08849425 83104,6917.852,95.437,540.774,538.659,0.0
53181.0,STARLINK-4273,PAYLOAD,2024-01-09 04:26:19,15.08833498,0.0001695,53.2167,72.6327,68.7616,291.3557,8.1892e-05,1.015e-05,0.0,0 STARLINK-4273,1 53181U 22083BB  24009.18494880  .00001015  00000-0  81892-4 0  9999,2 53181  53.2167  72.6327 0001695  68.7616 291.3557 15.08833498 83211,6917.9,95.438,540.938,538.593,0.0
53181.0,STARLINK-4273,PAYLOAD,2024-01-09 09:12:28,15.08843985,0.0001464,53.2179,71.741,79.7558,280.3599,-4.5204e-05,-1.007e-05,0.0,0 STARLINK-4273,1 53181U 22083BB  24009.38366550 -.00001007  00000-0 -45204-4 0  9993,2 53181  53.2179  71.7410 0001464  79.7558 280.3599 15.08843985 82606,6917.868,95.437,540.746,538.72,0.0
53181.0,STARLINK-4273,PAYLOAD,2024-01-10 10:38:37,15.08891895,0.0001518,53.2186,66.9855,96.5864,263.5301,-0.000661,-0.00010807,0.0,0 STARLINK-4273,1 53181U 22083BB  24010.44349289 -.00010807  00000-0 -66100-3 0  9997,2 53181  53.2186  66.9855 0001518  96.5864 263.5301 15.08891895 83406,6917.722,95.434,540.637,538.537,0.0
53181.0,STARLINK-4273,PAYLOAD,2024-01-11 04:07:53,15.08832481,0.0001775,53.218,63.714,97.2134,262.906,3.6328e-05,2.9e-06,0.0,0 STARLINK-4273,1 53181U 22083BB  24011.17215139  .00000290  00000-0  36328-4 0  9997,2 53181  53.2180  63.7140 0001775  97.2134 262.9060 15.08832481 83518,6917.903,95.438,540.996,538.54,0.0
53181.0,STARLINK-4273,PAYLOAD,2024-01-11 10:29:26,15.08837423,0.0001618,53.2182,62.5237,95.63,264.4877,7.5797e-05,9.18e-06,0.0,0 STARLINK-4273,1 53181U 22083BB  24011.43710739  .00000918  00000-0  75797-4 0  9992,2 53181  53.2182  62.5237 0001618  95.6300 264.4877 15.08837423 82914,6917.888,95.438,540.873,538.634,0.0
53181.0,STARLINK-4273,PAYLOAD,2024-01-12 10:20:13,15.0883819,0.0001466,53.2181,58.0636,83.6697,276.4462,7.1814e-05,8.55e-06,0.0,0 STARLINK-4273,1 53181U 22083BB  24012.43071092  .00000855  00000-0  71814-4 0  9991,2 53181  53.2181  58.0636 0001466  83.6697 276.4462 15.08838190 83706,6917.886,95.438,540.765,538.737,0.0
53181.0,STARLINK-4273,PAYLOAD,2024-01-12 11:55:36,15.0884041,0.0001569,53.2182,57.7662,102.3109,257.8059,7.6869e-05,9.36e-06,0.0,0 STARLINK-4273,1 53181U 22083BB  24012.49694881  .00000936  00000-0  76869-4 0  9999,2 53181  53.2182  57.7662 0001569 102.3109 257.8059 15.08840410 83076,6917.879,95.438,540.83,538.659,0.0
53181.0,STARLINK-4273,PAYLOAD,2024-01-13 11:46:26,15.08813609,0.0001438,53.218,53.3046,98.4135,261.702,-0.00014809,-2.642e-05,0.0,0 STARLINK-4273,1 53181U 22083BB  24013.49058348 -.00002642  00000-0 -14809-3 0  9995,2 53181  53.2180  53.3046 0001438  98.4135 261.7020 15.08813609 83860,6917.961,95.439,540.821,538.831,0.0
53181.0,STARLINK-4273,PAYLOAD,2024-01-13 22:54:07,15.08828996,0.00018,53.2181,51.2253,59.7176,300.3994,5.116e-05,5.26e-06,0.0,0 STARLINK-4273,1 53181U 22083BB  24013.95425449  .00000526  00000-0  51160-4 0  9995,2 53181  53.2181  51.2253 0001800  59.7176 300.3994 15.08828996 83939,6917.914,95.438,541.024,538.534,0.0
53181.0,STARLINK-4273,PAYLOAD,2024-01-14 11:37:09,15.08863142,0.0001568,53.218,48.8408,96.114,264.0031,0.00026494,3.934e-05,0.0,0 STARLINK-4273,1 53181U 22083BB  24014.48414293  .00003934  00000-0  26494-3 0  9996,2 53181  53.2180  48.8408 0001568  96.1140 264.0031 15.08863142 84019,6917.81,95.436,540.759,538.59,0.0
53181.0,STARLINK-4273,PAYLOAD,2024-01-15 08:17:11,15.08840803,0.0002088,53.219,44.9686,69.9108,290.2108,0.0003564,5.389e-05,0.0,0 STARLINK-4273,1 53181U 22083BB  24015.34527643  .00005389  00000-0  35640-3 0  9995,2 53181  53.2190  44.9686 0002088  69.9108 290.2108 15.08840803 84144,6917.878,95.438,541.187,538.298,0.0
53181.0,STARLINK-4273,PAYLOAD,2024-01-16 08:07:58,15.0885386,0.0002085,53.2167,40.5189,75.127,284.9953,-6.1365e-05,-1.265e-05,0.0,0 STARLINK-4273,1 53181U 22083BB  24016.33887466 -.00001265  00000-0 -61365-4 0  9992,2 53181  53.2167  40.5189 0002085  75.1270 284.9953 15.08853860 83654,6917.838,95.437,541.145,538.261,0.0
53181.0,STARLINK-4273,PAYLOAD,2024-01-17 06:23:22,15.08839058,0.0002056,53.2173,36.3543,109.2167,250.9048,-6.3747e-05,-1.303e-05,0.0,0 STARLINK-4273,1 53181U 22083BB  24017.26623773 -.00001303  00000-0 -63747-4 0  9993,2 53181  53.2173  36.3543 0002056 109.2167 250.9048 15.08839058 84438,6917.883,95.438,541.171,538.326,0.0
53181.0,STARLINK-4273,PAYLOAD,2024-01-18 06:14:10,15.0883418,0.0001719,53.2181,31.8934,90.3183,269.8006,3.2136e-05,2.23e-06,0.0,0 STARLINK-4273,1 53181U 22083BB  24018.25984115  .00000223  00000-0  32136-4 0  9999,2 53181  53.2181  31.8934 0001719  90.3183 269.8006 15.08834180 83943,6917.898,95.438,540.952,538.574,0.0
53181.0,STARLINK-4273,PAYLOAD,2024-01-18 23:43:24,15.08832906,0.0001708,53.2176,28.6195,91.7629,268.3559,9.2068e-05,1.177e-05,0.0,0 STARLINK-4273,1 53181U 22083BB  24018.98848277  .00001177  00000-0  92068-4 0  9996,2 53181  53.2176  28.6195 0001708  91.7629 268.3559 15.08832906 84692,6917.902,95.438,540.949,538.585,0.0
53181.0,STARLINK-4273,PAYLOAD,2024-01-19 10:51:06,15.08844942,0.000176,53.2172,26.5371,96.4111,263.7082,0.00017921,2.566e-05,0.0,0 STARLINK-4273,1 53181U 22083BB  24019.45215370  .00002566  00000-0  17921-3 0  9998,2 53181  53.2172  26.5371 0001760  96.4111 263.7082 15.08844942 84768,6917.865,95.437,540.948,538.513,0.0
53181.0,STARLINK-4273,PAYLOAD,2024-01-19 23:34:11,15.08836969,0.0002557,53.2166,24.1547,141.8093,218.3081,7.3126e-05,8.76e-06,0.0,0 STARLINK-4273,1 53181U 22083BB  24019.98207884  .00000876  00000-0  73126-4 0  9999,2 53181  53.2166  24.1547 0002557 141.8093 218.3081 15.08836969 84843,6917.89,95.438,541.524,537.986,0.0
53181.0,STARLINK-4273,PAYLOAD,2024-01-20 07:31:07,15.08836776,0.0001646,53.2177,22.6725,84.7753,275.3427,7.5034e-05,9.06e-06,0.0,0 STARLINK-4273,1 53181U 22083BB  24020.31328539  .00000906  00000-0  75034-4 0  9993,2 53181  53.2177  22.6725 0001646  84.7753 275.3427 15.08836776 84250,6917.89,95.438,540.894,538.617,0.0
53181.0,STARLINK-4273,PAYLOAD,2024-01-21 04:11:08,15.08842706,0.0001668,53.2179,18.8067,89.5629,270.5554,3.9886e-05,3.47e-06,0.0,0 STARLINK-4273,1 53181U 22083BB  24021.17440398  .00000347  00000-0  39886-4 0  9990,2 53181  53.2179  18.8067 0001668  89.5629 270.5554 15.08842706 85021,6917.872,95.437,540.891,538.583,0.0
53181.0,STARLINK-4273,PAYLOAD,2024-01-21 05:46:31,15.08844184,0.0001676,53.2179,18.5095,82.8361,277.2822,5.4938e-05,5.86e-06,0.0,0 STARLINK-4273,1 53181U 22083BB  24021.24064360  .00000586  00000-0  54938-4 0  9999,2 53181  53.2179  18.5095 0001676  82.8361 277.2822 15.08844184 84390,6917.868,95.437,540.892,538.573,0.0
53181.0,STARLINK-4273,PAYLOAD,2024-01-21 08:57:17,15.08849155,0.0001671,53.218,17.9143,93.2597,266.8586,0.00010824,1.435e-05,0.0,0 STARLINK-4273,1 53181U 22083BB  24021.37311857  .00001435  00000-0  10824-3 0  9998,2 53181  53.2180  17.9143 0001671  93.2597 266.8586 15.08849155 85059,6917.852,95.437,540.873,538.561,0.0
53181.0,STARLINK-4273,PAYLOAD,2024-01-22 04:01:55,15.08844771,0.0001641,53.2186,14.3462,103.5926,256.5249,0.00013119,1.801e-05,0.0,0 STARLINK-4273,1 53181U 22083BB  24022.16799930  .00001801  00000-0  13119-3 0  9995,2 53181  53.2186  14.3462 0001641 103.5926 256.5249 15.08844771 85172,6917.866,95.437,540.866,538.596,0.0
53181.0,STARLINK-4273,PAYLOAD,2024-01-22 05:37:18,15.08847112,0.0001663,53.218,14.0488,97.4246,262.6935,0.00015544,2.187e-05,0.0,0 STARLINK-4273,1 53181U 22083BB  24022.23423864  .00002187  00000-0  15544-3 0  9995,2 53181  53.2180  14.0488 0001663  97.4246 262.6935 15.08847112 84543,6917.859,95.437,540.874,538.573,0.0
53181.0,STARLINK-4273,PAYLOAD,2024-01-22 08:48:04,15.08851897,0.0001689,53.2181,13.4532,101.884,258.2342,0.00019463,2.812e-05,0.0,0 STARLINK-4273,1 53181U 22083BB  24022.36671433  .00002812  00000-0  19463-3 0  9995,2 53181  53.2181  13.4532 0001689 101.8840 258.2342 15.08851897 85207,6917.844,95.437,540.877,538.541,0.0
53181.0,STARLINK-4273,PAYLOAD,2024-01-23 03:52:42,15.08842652,0.0002221,53.2197,9.8804,90.8054,269.3193,3.4679e-05,2.64e-06,0.0,0 STARLINK-4273,1 53181U 22083BB  24023.16160219  .00000264  00000-0  34679-4 0  9995,2 53181  53.2197   9.8804 0002221  90.8054 269.3193 15.08842652 85321,6917.872,95.437,541.274,538.201,0.0
53181.0,STARLINK-4273,PAYLOAD,2024-01-23 05:28:05,15.0884154,0.0001714,53.2189,9.5874,93.8797,266.2391,6.9597e-05,8.2e-06,0.0,0 STARLINK-4273,1 53181U 22083BB  24023.22784530  .00000820  00000-0  69597-4 0  9995,2 53181  53.2189   9.5874 0001714  93.8797 266.2391 15.08841540 84699,6917.876,95.437,540.926,538.555,0.0
53181.0,STARLINK-4273,PAYLOAD,2024-01-24 03:43:29,15.08843329,0.0001729,53.2181,5.4267,96.3233,263.7956,7.1104e-05,8.44e-06,0.0,0 STARLINK-4273,1 53181U 22083BB  24024.15520426  .00000844  00000-0  71104-4 0  9993,2 53181  53.2181   5.4267 0001729  96.3233 263.7956 15.08843329 84833,6917.87,95.437,540.931,538.539,0.0
